STARLINK-1559           
1 46077U 20055BC  26068.23360559  .00042685  00000+0  14779-2 0  9995
2 46077  53.0254  76.0659 0004229  33.9710 326.1559 15.29461733309518
STARLINK-2743           
1 48682U 21044AW  26068.42942889 -.00002116  00000+0 -59354-4 0  9998
2 48682  53.1601  66.1547 0000994 118.5506 241.5595 15.30200308264468
