[{"OBJECT_NAME":"STARLINK-1559","OBJECT_ID":"2020-055BC","EPOCH":"2026-03-09T05:36:23.522976","MEAN_MOTION":15.29461733,"ECCENTRICITY":0.0004229,"INCLINATION":53.0254,"RA_OF_ASC_NODE":76.0659,"ARG_OF_PERICENTER":33.971,"MEAN_ANOMALY":326.1559,"EPHEMERIS_TYPE":0,"CLASSIFICATION_TYPE":"U","NORAD_CAT_ID":46077,"ELEMENT_SET_NO":999,"REV_AT_EPOCH":30951,"BSTAR":0.0014778793,"MEAN_MOTION_DOT":0.00042685,"MEAN_MOTION_DDOT":0},{"OBJECT_NAME":"STARLINK-2743","OBJECT_ID":"2021-044AW","EPOCH":"2026-03-09T10:18:22.656096","MEAN_MOTION":15.30200308,"ECCENTRICITY":9.944e-5,"INCLINATION":53.1601,"RA_OF_ASC_NODE":66.1547,"ARG_OF_PERICENTER":118.5506,"MEAN_ANOMALY":241.5595,"EPHEMERIS_TYPE":0,"CLASSIFICATION_TYPE":"U","NORAD_CAT_ID":48682,"ELEMENT_SET_NO":999,"REV_AT_EPOCH":26446,"BSTAR":-5.93542e-5,"MEAN_MOTION_DOT":-2.116e-5,"MEAN_MOTION_DDOT":0}]
